ALOS-4 (DAICHI-4)       
1 60182U 24123A   24297.49668144  .00005352  00000+0  72282-3 0  9993
2 60182  97.9213  32.3061 0001402  99.2330 260.9040 14.79482682 16917
